[{"OBJECT_NAME":"COSMOS 2407","OBJECT_ID":"2004-028A","EPOCH":"2026-04-25T17:54:42.640704","MEAN_MOTION":13.76329927,"ECCENTRICITY":0.0040217,"INCLINATION":82.9567,"RA_OF_ASC_NODE":113.6757,"ARG_OF_PERICENTER":40.7266,"MEAN_ANOMALY":133.4789,"EPHEMERIS_TYPE":0,"CLASSIFICATION_TYPE":"U","NORAD_CAT_ID":28380,"ELEMENT_SET_NO":999,"REV_AT_EPOCH":9266,"BSTAR":6.306e-5,"MEAN_MOTION_DOT":7.7e-7,"MEAN_MOTION_DDOT":0},{"OBJECT_NAME":"COSMOS 2414","OBJECT_ID":"2005-002A","EPOCH":"2026-04-25T20:07:02.518176","MEAN_MOTION":13.8792054,"ECCENTRICITY":0.0041386,"INCLINATION":82.9474,"RA_OF_ASC_NODE":83.2412,"ARG_OF_PERICENTER":117.6076,"MEAN_ANOMALY":242.9299,"EPHEMERIS_TYPE":0,"CLASSIFICATION_TYPE":"U","NORAD_CAT_ID":28521,"ELEMENT_SET_NO":999,"REV_AT_EPOCH":7655,"BSTAR":6.5107e-5,"MEAN_MOTION_DOT":9.4e-7,"MEAN_MOTION_DDOT":0},{"OBJECT_NAME":"COSMOS 2463","OBJECT_ID":"2010-017A","EPOCH":"2026-04-25T17:34:29.385120","MEAN_MOTION":13.71662061,"ECCENTRICITY":0.0034794,"INCLINATION":82.957,"RA_OF_ASC_NODE":288.2551,"ARG_OF_PERICENTER":275.8342,"MEAN_ANOMALY":94.708,"EPHEMERIS_TYPE":0,"CLASSIFICATION_TYPE":"U","NORAD_CAT_ID":36519,"ELEMENT_SET_NO":999,"REV_AT_EPOCH":80074,"BSTAR":4.9062e-5,"MEAN_MOTION_DOT":5.9e-7,"MEAN_MOTION_DDOT":0}]
