COSMOS 2407             
1 28380U 04028A   26115.74632686  .00000077  00000+0  63060-4 0  9994
2 28380  82.9567 113.6757 0040217  40.7266 133.4789 13.76329927 92666
COSMOS 2414             
1 28521U 05002A   26115.83822359  .00000094  00000+0  65107-4 0  9995
2 28521  82.9474  83.2412 0041386 117.6076 242.9299 13.87920540 76553
COSMOS 2463             
1 36519U 10017A   26115.73228455  .00000059  00000+0  49062-4 0  9992
2 36519  82.9570 288.2551 0034794 275.8342  94.7080 13.71662061800746
